[{"OBJECT_NAME":"STARLINK-4059","OBJECT_ID":"2022-086J","EPOCH":"2026-03-09T15:31:47.094240","MEAN_MOTION":15.0882941,"ECCENTRICITY":9.76e-5,"INCLINATION":53.2172,"RA_OF_ASC_NODE":194.3124,"ARG_OF_PERICENTER":63.6237,"MEAN_ANOMALY":296.4855,"EPHEMERIS_TYPE":0,"CLASSIFICATION_TYPE":"U","NORAD_CAT_ID":53250,"ELEMENT_SET_NO":999,"REV_AT_EPOCH":20106,"BSTAR":0.0001461,"MEAN_MOTION_DOT":2.038e-5,"MEAN_MOTION_DDOT":0},{"OBJECT_NAME":"COSMOS 2251 DEB","OBJECT_ID":"1993-036AJC","EPOCH":"2026-03-07T22:08:36.037248","MEAN_MOTION":15.09712263,"ECCENTRICITY":0.00171889,"INCLINATION":73.9945,"RA_OF_ASC_NODE":155.7464,"ARG_OF_PERICENTER":279.7001,"MEAN_ANOMALY":80.2249,"EPHEMERIS_TYPE":0,"CLASSIFICATION_TYPE":"U","NORAD_CAT_ID":35073,"ELEMENT_SET_NO":999,"REV_AT_EPOCH":68760,"BSTAR":0.00527522,"MEAN_MOTION_DOT":0.00086343,"MEAN_MOTION_DDOT":0}]
